NORAD_CAT_ID,OBJECT_NAME,OBJECT_TYPE,EPOCH,MEAN_MOTION,ECCENTRICITY,INCLINATION,RA_OF_ASC_NODE,ARG_OF_PERICENTER,MEAN_ANOMALY,BSTAR,MEAN_MOTION_DOT,MEAN_MOTION_DDOT,TLE_LINE0,TLE_LINE1,TLE_LINE2,SEMIMAJOR_AXIS,PERIOD,APOGEE,PERIGEE,DECAYED
53909.0,STARLINK-4796,PAYLOAD,2023-04-16 01:22:18,15.08842577,0.0001365,53.2191,26.7641,82.6751,277.4396,0.00089762,0.00014027,0.0,0 STARLINK-4796,1 53909U 22119Z   23106.05715497  .00014027  00000-0  89762-3 0  9990,2 53909  53.2191  26.7641 0001365  82.6751 277.4396 15.08842577 31581,6917.873,95.437,540.682,538.793,0.0
53909.0,STARLINK-4796,PAYLOAD,2023-04-16 18:51:33,15.0883345,0.0001424,53.2185,23.4909,87.2449,272.8706,0.00095996,0.0001502,0.0,0 STARLINK-4796,1 53909U 22119Z   23106.78579952  .00015020  00000-0  95996-3 0  9994,2 53909  53.2185  23.4909 0001424  87.2449 272.8706 15.08833450 31692,6917.9,95.438,540.751,538.78,0.0
53909.0,STARLINK-4796,PAYLOAD,2023-04-17 04:23:51,15.08847795,0.0001333,53.2187,21.7082,78.633,281.4812,0.00090761,0.00014189,0.0,0 STARLINK-4796,1 53909U 22119Z   23107.18323714  .00014189  00000-0  90761-3 0  9992,2 53909  53.2187  21.7082 0001333  78.6330 281.4812 15.08847795 32174,6917.857,95.437,540.644,538.799,0.0
53909.0,STARLINK-4796,PAYLOAD,2023-04-17 21:53:06,15.08839047,0.0001281,53.2196,18.4407,82.1649,277.9489,0.00018648,2.681e-05,0.0,0 STARLINK-4796,1 53909U 22119Z   23107.91188157  .00002681  00000-0  18648-3 0  9991,2 53909  53.2196  18.4407 0001281  82.1649 277.9489 15.08839047 32286,6917.883,95.438,540.634,538.862,0.0
53909.0,STARLINK-4796,PAYLOAD,2023-04-18 01:03:52,15.08845605,0.0001394,53.2198,17.8452,95.0787,265.0364,0.00033687,5.078e-05,0.0,0 STARLINK-4796,1 53909U 22119Z   23108.04435949  .00005078  00000-0  33687-3 0  9993,2 53909  53.2198  17.8452 0001394  95.0787 265.0364 15.08845605 31884,6917.863,95.437,540.693,538.764,0.0
53909.0,STARLINK-4796,PAYLOAD,2023-04-19 04:05:26,15.08848959,0.0001169,53.2184,12.7884,74.6928,285.4193,0.00038251,5.806e-05,0.0,0 STARLINK-4796,1 53909U 22119Z   23109.17044030  .00005806  00000-0  38251-3 0  9996,2 53909  53.2184  12.7884 0001169  74.6928 285.4193 15.08848959 32053,6917.853,95.437,540.527,538.909,0.0
53909.0,STARLINK-4796,PAYLOAD,2023-04-20 00:45:29,15.08809268,0.0001602,53.2191,8.9237,95.8485,264.269,-6.2231e-05,-1.277e-05,0.0,0 STARLINK-4796,1 53909U 22119Z   23110.03158631 -.00001277  00000-0 -62231-4 0  9992,2 53909  53.2191   8.9237 0001602  95.8485 264.2690 15.08809268 32186,6917.974,95.439,540.948,538.731,0.0
53909.0,STARLINK-4796,PAYLOAD,2023-04-21 10:08:34,15.08840737,0.0001226,53.2172,2.6789,137.5794,222.5293,0.00041797,6.37e-05,0.0,0 STARLINK-4796,1 53909U 22119Z   23111.42261780  .00006370  00000-0  41797-3 0  9996,2 53909  53.2172   2.6789 0001226 137.5794 222.5293 15.08840737 32819,6917.878,95.438,540.591,538.895,0.0
53909.0,STARLINK-4796,PAYLOAD,2023-04-21 22:51:38,15.08865996,0.0001298,53.2174,0.3003,138.9079,221.2011,0.00065357,0.00010136,0.0,0 STARLINK-4796,1 53909U 22119Z   23111.95252734  .00010136  00000-0  65357-3 0  9996,2 53909  53.2174   0.3003 0001298 138.9079 221.2011 15.08865996 32891,6917.801,95.436,540.564,538.768,0.0
53909.0,STARLINK-4796,PAYLOAD,2023-04-22 02:02:24,15.08879264,0.0001058,53.2174,359.7057,76.6244,283.4866,0.0022325,0.00035459,0.0,0 STARLINK-4796,1 53909U 22119Z   23112.08500566  .00035459  00000-0  22325-2 0  9992,2 53909  53.2174 359.7057 0001058  76.6244 283.4866 15.08879264 32494,6917.76,95.435,540.357,538.893,0.0
53909.0,STARLINK-4796,PAYLOAD,2023-04-22 09:59:20,15.08854027,0.0001106,53.2175,358.2181,88.0857,272.0262,0.00040916,6.232e-05,0.0,0 STARLINK-4796,1 53909U 22119Z   23112.41620382  .00006232  00000-0  40916-3 0  9992,2 53909  53.2175 358.2181 0001106  88.0857 272.0262 15.08854027 32548,6917.838,95.437,540.468,538.937,0.0
53909.0,STARLINK-4796,PAYLOAD,2023-04-22 13:10:06,15.08861761,0.0001074,53.217,357.6235,92.3777,267.7338,0.00067575,0.00010489,0.0,0 STARLINK-4796,1 53909U 22119Z   23112.54868139  .00010489  00000-0  67575-3 0  9999,2 53909  53.2170 357.6235 0001074  92.3777 267.7338 15.08861761 32985,6917.814,95.436,540.422,538.936,0.0
53909.0,STARLINK-4796,PAYLOAD,2023-04-22 21:07:01,15.08864785,0.0001033,53.2169,356.1373,90.391,269.72,0.0012833,0.00020209,0.0,0 STARLINK-4796,1 53909U 22119Z   23112.87987898  .00020209  00000-0  12833-2 0  9996,2 53909  53.2169 356.1373 0001033  90.3910 269.7200 15.08864785 33038,6917.805,95.436,540.384,538.955,0.0
53909.0,STARLINK-4796,PAYLOAD,2023-04-23 13:00:52,15.08841473,0.0001176,53.2175,353.1634,92.8946,267.218,0.00057623,8.895e-05,0.0,0 STARLINK-4796,1 53909U 22119Z   23113.54227967  .00008895  00000-0  57623-3 0  9999,2 53909  53.2175 353.1634 0001176  92.8946 267.2180 15.08841473 33136,6917.876,95.437,540.554,538.927,0.0
53909.0,STARLINK-4796,PAYLOAD,2023-04-23 20:57:48,15.0885039,0.0001224,53.2173,351.677,85.0924,275.0208,0.0018036,0.00028541,0.0,0 STARLINK-4796,1 53909U 22119Z   23113.87348046  .00028541  00000-0  18036-2 0  9991,2 53909  53.2173 351.6770 0001224  85.0924 275.0208 15.08850390 33183,6917.849,95.437,540.56,538.867,0.0
53909.0,STARLINK-4796,PAYLOAD,2023-04-24 06:30:07,15.08909068,0.000114,53.2176,349.8921,91.3919,268.7204,0.0056943,0.00091691,0.0,0 STARLINK-4796,1 53909U 22119Z   23114.27091624  .00091691  00000-0  56943-2 0  9998,2 53909  53.2176 349.8921 0001140  91.3919 268.7204 15.08909068 32826,6917.669,95.433,540.323,538.746,0.0
53909.0,STARLINK-4796,PAYLOAD,2023-04-24 17:37:48,15.08917408,0.0001111,53.2174,347.8105,94.2546,265.8573,0.0041648,0.00066764,0.0,0 STARLINK-4796,1 53909U 22119Z   23114.73458475  .00066764  00000-0  41648-2 0  9999,2 53909  53.2174 347.8105 0001111  94.2546 265.8573 15.08917408 32893,6917.644,95.433,540.277,538.74,0.0
53909.0,STARLINK-4796,PAYLOAD,2023-04-25 04:45:29,15.08845418,9.99e-05,53.2176,345.7283,96.3043,263.8063,-0.0011181,-0.0001804,0.0,0 STARLINK-4796,1 53909U 22119Z   23115.19825696 -.00018040  00000-0 -11181-2 0  9998,2 53909  53.2176 345.7283 0000999  96.3043 263.8063 15.08845418 32968,6917.864,95.437,540.42,539.038,0.0
53909.0,STARLINK-4796,PAYLOAD,2023-04-25 11:07:02,15.0879689,0.0001169,53.2175,344.5393,80.2719,279.8405,-0.0021734,-0.0003467,0.0,0 STARLINK-4796,1 53909U 22119Z   23115.46322913 -.00034670  00000-0 -21734-2 0  9994,2 53909  53.2175 344.5393 0001169  80.2719 279.8405 15.08796890 33000,6918.012,95.44,540.686,539.068,0.0
53909.0,STARLINK-4796,PAYLOAD,2023-04-25 12:42:26,15.08791403,0.0001221,53.2174,344.2421,75.3491,284.7637,-0.0017992,-0.0002877,0.0,0 STARLINK-4796,1 53909U 22119Z   23115.52947202 -.00028770  00000-0 -17992-2 0  9990,2 53909  53.2174 344.2421 0001221  75.3491 284.7637 15.08791403 33433,6918.029,95.441,540.739,539.049,0.0
53909.0,STARLINK-4796,PAYLOAD,2023-04-26 14:08:39,15.088265,0.0001239,53.2171,339.4848,59.2468,300.8646,0.0017435,0.00027558,0.0,0 STARLINK-4796,1 53909U 22119Z   23116.58934492  .00027558  00000-0  17435-2 0  9997,2 53909  53.2171 339.4848 0001239  59.2468 300.8646 15.08826500 33597,6917.922,95.438,540.644,538.93,0.0
53909.0,STARLINK-4796,PAYLOAD,2023-04-26 20:30:11,15.08845729,0.0001244,53.217,338.2956,56.8485,303.2626,0.0013152,0.00020709,0.0,0 STARLINK-4796,1 53909U 22119Z   23116.85430406  .00020709  00000-0  13152-2 0  9996,2 53909  53.2170 338.2956 0001244  56.8485 303.2626 15.08845729 33635,6917.863,95.437,540.588,538.867,0.0
53909.0,STARLINK-4796,PAYLOAD,2023-04-27 01:16:21,15.08852121,0.000122,53.2171,337.4032,57.6887,302.4223,0.0016296,0.00025751,0.0,0 STARLINK-4796,1 53909U 22119Z   23117.05302323  .00025751  00000-0  16296-2 0  9999,2 53909  53.2171 337.4032 0001220  57.6887 302.4223 15.08852121 33246,6917.843,95.437,540.552,538.864,0.0
53909.0,STARLINK-4796,PAYLOAD,2023-04-27 12:24:02,15.08859265,0.0001275,53.2167,335.3218,58.2466,301.865,0.00067676,0.00010505,0.0,0 STARLINK-4796,1 53909U 22119Z   23117.51669779  .00010505  00000-0  67676-3 0  9991,2 53909  53.2167 335.3218 0001275  58.2466 301.8650 15.08859265 33315,6917.822,95.436,540.569,538.804,0.0
53909.0,STARLINK-4796,PAYLOAD,2023-04-27 13:59:25,15.0886022,0.0001282,53.2166,335.0244,57.8482,302.2635,0.00063579,9.851e-05,0.0,0 STARLINK-4796,1 53909U 22119Z   23117.58293688  .00009851  00000-0  63579-3 0  9990,2 53909  53.2166 335.0244 0001282  57.8482 302.2635 15.08860220 33749,6917.819,95.436,540.57,538.797,0.0
53909.0,STARLINK-4796,PAYLOAD,2023-04-28 12:14:48,15.08847331,0.0001113,53.2165,330.8617,63.3024,296.8082,-0.00010118,-1.898e-05,0.0,0 STARLINK-4796,1 53909U 22119Z   23118.51028872 -.00001898  00000-0 -10118-3 0  9991,2 53909  53.2165 330.8617 0001113  63.3024 296.8082 15.08847331 33463,6917.858,95.437,540.493,538.953,0.0
53909.0,STARLINK-4796,PAYLOAD,2023-04-28 13:50:12,15.08847322,0.0001135,53.2166,330.5644,62.1163,297.9944,-5.0598e-05,-1.093e-05,0.0,0 STARLINK-4796,1 53909U 22119Z   23118.57652880 -.00001093  00000-0 -50598-4 0  9993,2 53909  53.2166 330.5644 0001135  62.1163 297.9944 15.08847322 33892,6917.858,95.437,540.508,538.938,0.0
53909.0,STARLINK-4796,PAYLOAD,2023-04-29 13:40:59,15.08841008,0.0001213,53.2167,326.1043,63.946,296.1657,0.00047611,7.298e-05,0.0,0 STARLINK-4796,1 53909U 22119Z   23119.57013201  .00007298  00000-0  47611-3 0  9994,2 53909  53.2167 326.1043 0001213  63.9460 296.1657 15.08841008 34048,6917.877,95.437,540.581,538.903,0.0
53909.0,STARLINK-4796,PAYLOAD,2023-04-30 13:31:46,15.08848222,0.0001394,53.2168,321.6439,90.8622,269.253,0.00032899,4.953e-05,0.0,0 STARLINK-4796,1 53909U 22119Z   23120.56373068  .00004953  00000-0  32899-3 0  9992,2 53909  53.2168 321.6439 0001394  90.8622 269.2530 15.08848222 34199,6917.855,95.437,540.685,538.756,0.0
53909.0,STARLINK-4796,PAYLOAD,2023-04-30 18:17:55,15.08841238,0.0001232,53.2166,320.7518,62.6064,297.5054,0.00019644,2.84e-05,0.0,0 STARLINK-4796,1 53909U 22119Z   23120.76245233  .00002840  00000-0  19644-3 0  9992,2 53909  53.2166 320.7518 0001232  62.6064 297.5054 15.08841238 33805,6917.877,95.437,540.594,538.889,0.0
